CCSDS_OMM_VERS = 2.0
CREATION_DATE  = 
ORIGINATOR     = 

OBJECT_NAME    = YOTSUBA-KULOVER
OBJECT_ID      = 1998-067XN
CENTER_NAME    = EARTH
REF_FRAME      = TEME
TIME_SYSTEM    = UTC
MEAN_ELEMENT_THEORY = SGP/SGP4

EPOCH          = 2026-02-28T09:34:39.508032
MEAN_MOTION    = 15.76599293
ECCENTRICITY   = .0006128
INCLINATION    = 51.6225
RA_OF_ASC_NODE = 105.3364
ARG_OF_PERICENTER = 14.4988
MEAN_ANOMALY   = 345.6186

EPHEMERIS_TYPE = 0
CLASSIFICATION_TYPE = U
NORAD_CAT_ID   = 65941
ELEMENT_SET_NO = 999
REV_AT_EPOCH   = 2203
BSTAR          = .94663111E-3
MEAN_MOTION_DOT = .156672E-2
MEAN_MOTION_DDOT = 0

CCSDS_OMM_VERS = 2.0
CREATION_DATE  = 
ORIGINATOR     = 

OBJECT_NAME    = BOTAN
OBJECT_ID      = 1998-067XP
CENTER_NAME    = EARTH
REF_FRAME      = TEME
TIME_SYSTEM    = UTC
MEAN_ELEMENT_THEORY = SGP/SGP4

EPOCH          = 2026-02-28T08:04:55.591392
MEAN_MOTION    = 16.09764360
ECCENTRICITY   = .00080313
INCLINATION    = 51.6100
RA_OF_ASC_NODE = 98.7850
ARG_OF_PERICENTER = 32.0409
MEAN_ANOMALY   = 328.1092

EPHEMERIS_TYPE = 0
CLASSIFICATION_TYPE = U
NORAD_CAT_ID   = 65942
ELEMENT_SET_NO = 999
REV_AT_EPOCH   = 2211
BSTAR          = .16545222E-2
MEAN_MOTION_DOT = .1546827E-1
MEAN_MOTION_DDOT = .16906875E-2

CCSDS_OMM_VERS = 2.0
CREATION_DATE  = 
ORIGINATOR     = 

OBJECT_NAME    = E-KAGAKU-1
OBJECT_ID      = 1998-067XQ
CENTER_NAME    = EARTH
REF_FRAME      = TEME
TIME_SYSTEM    = UTC
MEAN_ELEMENT_THEORY = SGP/SGP4

EPOCH          = 2026-02-28T09:38:40.265088
MEAN_MOTION    = 15.76374151
ECCENTRICITY   = .00063173
INCLINATION    = 51.6247
RA_OF_ASC_NODE = 105.3702
ARG_OF_PERICENTER = 22.7475
MEAN_ANOMALY   = 337.3804

EPHEMERIS_TYPE = 0
CLASSIFICATION_TYPE = U
NORAD_CAT_ID   = 65943
ELEMENT_SET_NO = 999
REV_AT_EPOCH   = 2203
BSTAR          = .92963939E-3
MEAN_MOTION_DOT = .152253E-2
MEAN_MOTION_DDOT = 0

CCSDS_OMM_VERS = 2.0
CREATION_DATE  = 
ORIGINATOR     = 

OBJECT_NAME    = HRC MONOBLOCK CAMERA
OBJECT_ID      = 1998-067XR
CENTER_NAME    = EARTH
REF_FRAME      = TEME
TIME_SYSTEM    = UTC
MEAN_ELEMENT_THEORY = SGP/SGP4

EPOCH          = 2026-02-28T11:38:58.093440
MEAN_MOTION    = 15.61100272
ECCENTRICITY   = .00032136
INCLINATION    = 51.6279
RA_OF_ASC_NODE = 111.9480
ARG_OF_PERICENTER = 53.0809
MEAN_ANOMALY   = 307.0478

EPHEMERIS_TYPE = 0
CLASSIFICATION_TYPE = U
NORAD_CAT_ID   = 66052
ELEMENT_SET_NO = 999
REV_AT_EPOCH   = 2095
BSTAR          = .56485252E-3
MEAN_MOTION_DOT = .48343E-3
MEAN_MOTION_DDOT = 0

CCSDS_OMM_VERS = 2.0
CREATION_DATE  = 
ORIGINATOR     = 

OBJECT_NAME    = HTV-X1
OBJECT_ID      = 2025-241A
CENTER_NAME    = EARTH
REF_FRAME      = TEME
TIME_SYSTEM    = UTC
MEAN_ELEMENT_THEORY = SGP/SGP4

EPOCH          = 2026-02-28T20:45:57.648384
MEAN_MOTION    = 15.48367881
ECCENTRICITY   = .00082969
INCLINATION    = 51.6324
RA_OF_ASC_NODE = 115.9816
ARG_OF_PERICENTER = 143.6602
MEAN_ANOMALY   = 216.4951

EPHEMERIS_TYPE = 0
CLASSIFICATION_TYPE = U
NORAD_CAT_ID   = 66174
ELEMENT_SET_NO = 999
REV_AT_EPOCH   = 55447
BSTAR          = .18357562E-3
MEAN_MOTION_DOT = .9465E-4
MEAN_MOTION_DDOT = 0

CCSDS_OMM_VERS = 2.0
CREATION_DATE  = 
ORIGINATOR     = 

OBJECT_NAME    = SZ-21 MODULE
OBJECT_ID      = 2025-246C
CENTER_NAME    = EARTH
REF_FRAME      = TEME
TIME_SYSTEM    = UTC
MEAN_ELEMENT_THEORY = SGP/SGP4

EPOCH          = 2026-02-28T14:01:25.580640
MEAN_MOTION    = 15.67747367
ECCENTRICITY   = .0001436
INCLINATION    = 41.4737
RA_OF_ASC_NODE = 259.3806
ARG_OF_PERICENTER = 285.8647
MEAN_ANOMALY   = 74.2036

EPHEMERIS_TYPE = 0
CLASSIFICATION_TYPE = U
NORAD_CAT_ID   = 66515
ELEMENT_SET_NO = 999
REV_AT_EPOCH   = 1664
BSTAR          = .31267443E-3
MEAN_MOTION_DOT = .35117E-3
MEAN_MOTION_DDOT = 0

CCSDS_OMM_VERS = 2.0
CREATION_DATE  = 
ORIGINATOR     = 

OBJECT_NAME    = SHENZHOU-22
OBJECT_ID      = 2025-272A
CENTER_NAME    = EARTH
REF_FRAME      = TEME
TIME_SYSTEM    = UTC
MEAN_ELEMENT_THEORY = SGP/SGP4

EPOCH          = 2026-02-28T22:44:17.385216
MEAN_MOTION    = 15.60253721
ECCENTRICITY   = .00063345
INCLINATION    = 41.4653
RA_OF_ASC_NODE = 261.3398
ARG_OF_PERICENTER = 218.3697
MEAN_ANOMALY   = 141.6692

EPHEMERIS_TYPE = 0
CLASSIFICATION_TYPE = U
NORAD_CAT_ID   = 66645
ELEMENT_SET_NO = 999
REV_AT_EPOCH   = 26752
BSTAR          = .29036434E-3
MEAN_MOTION_DOT = .24142E-3
MEAN_MOTION_DDOT = 0

CCSDS_OMM_VERS = 2.0
CREATION_DATE  = 
ORIGINATOR     = 

OBJECT_NAME    = SOYUZ-MS 28
OBJECT_ID      = 2025-275A
CENTER_NAME    = EARTH
REF_FRAME      = TEME
TIME_SYSTEM    = UTC
MEAN_ELEMENT_THEORY = SGP/SGP4

EPOCH          = 2026-02-28T20:45:57.648384
MEAN_MOTION    = 15.48367881
ECCENTRICITY   = .00082969
INCLINATION    = 51.6324
RA_OF_ASC_NODE = 115.9816
ARG_OF_PERICENTER = 143.6602
MEAN_ANOMALY   = 216.4951

EPHEMERIS_TYPE = 0
CLASSIFICATION_TYPE = U
NORAD_CAT_ID   = 66664
ELEMENT_SET_NO = 999
REV_AT_EPOCH   = 55452
BSTAR          = .18357562E-3
MEAN_MOTION_DOT = .9465E-4
MEAN_MOTION_DDOT = 0

CCSDS_OMM_VERS = 2.0
CREATION_DATE  = 
ORIGINATOR     = 

OBJECT_NAME    = DUPLEX
OBJECT_ID      = 1998-067XS
CENTER_NAME    = EARTH
REF_FRAME      = TEME
TIME_SYSTEM    = UTC
MEAN_ELEMENT_THEORY = SGP/SGP4

EPOCH          = 2026-02-28T09:37:46.846560
MEAN_MOTION    = 15.55539070
ECCENTRICITY   = .0001912
INCLINATION    = 51.6291
RA_OF_ASC_NODE = 115.8870
ARG_OF_PERICENTER = 83.2309
MEAN_ANOMALY   = 276.8900

EPHEMERIS_TYPE = 0
CLASSIFICATION_TYPE = U
NORAD_CAT_ID   = 66906
ELEMENT_SET_NO = 999
REV_AT_EPOCH   = 1368
BSTAR          = .42215343E-3
MEAN_MOTION_DOT = .2905E-3
MEAN_MOTION_DDOT = 0

CCSDS_OMM_VERS = 2.0
CREATION_DATE  = 
ORIGINATOR     = 

OBJECT_NAME    = ISS OBJECT XT
OBJECT_ID      = 1998-067XT
CENTER_NAME    = EARTH
REF_FRAME      = TEME
TIME_SYSTEM    = UTC
MEAN_ELEMENT_THEORY = SGP/SGP4

EPOCH          = 2026-02-28T12:44:33.592704
MEAN_MOTION    = 15.66296496
ECCENTRICITY   = .00043287
INCLINATION    = 51.6258
RA_OF_ASC_NODE = 112.2441
ARG_OF_PERICENTER = 26.0181
MEAN_ANOMALY   = 334.1031

EPHEMERIS_TYPE = 0
CLASSIFICATION_TYPE = U
NORAD_CAT_ID   = 66907
ELEMENT_SET_NO = 999
REV_AT_EPOCH   = 1374
BSTAR          = .11466473E-2
MEAN_MOTION_DOT = .122304E-2
MEAN_MOTION_DDOT = 0

CCSDS_OMM_VERS = 2.0
CREATION_DATE  = 
ORIGINATOR     = 

OBJECT_NAME    = ISS OBJECT XU
OBJECT_ID      = 1998-067XU
CENTER_NAME    = EARTH
REF_FRAME      = TEME
TIME_SYSTEM    = UTC
MEAN_ELEMENT_THEORY = SGP/SGP4

EPOCH          = 2026-02-28T12:42:47.204928
MEAN_MOTION    = 15.66365994
ECCENTRICITY   = .00044227
INCLINATION    = 51.6255
RA_OF_ASC_NODE = 112.2330
ARG_OF_PERICENTER = 28.6161
MEAN_ANOMALY   = 331.5077

EPHEMERIS_TYPE = 0
CLASSIFICATION_TYPE = U
NORAD_CAT_ID   = 66908
ELEMENT_SET_NO = 999
REV_AT_EPOCH   = 1374
BSTAR          = .11312189E-2
MEAN_MOTION_DOT = .120972E-2
MEAN_MOTION_DDOT = 0

CCSDS_OMM_VERS = 2.0
CREATION_DATE  = 
ORIGINATOR     = 

OBJECT_NAME    = SILVERSAT
OBJECT_ID      = 1998-067XV
CENTER_NAME    = EARTH
REF_FRAME      = TEME
TIME_SYSTEM    = UTC
MEAN_ELEMENT_THEORY = SGP/SGP4

EPOCH          = 2026-02-28T13:05:47.477760
MEAN_MOTION    = 15.68604057
ECCENTRICITY   = .00052572
INCLINATION    = 51.6259
RA_OF_ASC_NODE = 111.5898
ARG_OF_PERICENTER = 25.0248
MEAN_ANOMALY   = 335.1003

EPHEMERIS_TYPE = 0
CLASSIFICATION_TYPE = U
NORAD_CAT_ID   = 66909
ELEMENT_SET_NO = 999
REV_AT_EPOCH   = 1375
BSTAR          = .12814231E-2
MEAN_MOTION_DOT = .150783E-2
MEAN_MOTION_DDOT = 0

