YOTSUBA-KULOVER         
1 65941U 98067XN  26059.39906838  .00156672  00000+0  94663-3 0  9990
2 65941  51.6225 105.3364 0006128  14.4988 345.6186 15.76599293 22037
BOTAN                   
1 65942U 98067XP  26059.33675453  .01546827  16907-2  16545-2 0  9995
2 65942  51.6100  98.7850 0008031  32.0409 328.1092 16.09764360 22111
E-KAGAKU-1              
1 65943U 98067XQ  26059.40185492  .00152253  00000+0  92964-3 0  9992
2 65943  51.6247 105.3702 0006317  22.7475 337.3804 15.76374151 22031
HRC MONOBLOCK CAMERA    
1 66052U 98067XR  26059.48539460  .00048343  00000+0  56485-3 0  9992
2 66052  51.6279 111.9480 0003213  53.0809 307.0478 15.61100272 20959
HTV-X1                  
1 66174U 25241A   26059.86525056  .00009465  00000+0  18358-3 0  9998
2 66174  51.6324 115.9816 0008296 143.6602 216.4951 15.48367881554479
SZ-21 MODULE            
1 66515U 25246C   26059.58432385  .00035117  00000+0  31267-3 0  9990
2 66515  41.4737 259.3806 0001436 285.8647  74.2036 15.67747367 16640
SHENZHOU-22             
1 66645U 25272A   26059.94742344  .00024142  00000+0  29036-3 0  9999
2 66645  41.4653 261.3398 0006334 218.3697 141.6692 15.60253721267529
SOYUZ-MS 28             
1 66664U 25275A   26059.86525056  .00009465  00000+0  18358-3 0  9999
2 66664  51.6324 115.9816 0008296 143.6602 216.4951 15.48367881554529
DUPLEX                  
1 66906U 98067XS  26059.40123665  .00029050  00000+0  42215-3 0  9998
2 66906  51.6291 115.8870 0001912  83.2309 276.8900 15.55539070 13681
ISS OBJECT XT           
1 66907U 98067XT  26059.53094436  .00122304  00000+0  11466-2 0  9995
2 66907  51.6258 112.2441 0004328  26.0181 334.1031 15.66296496 13741
ISS OBJECT XU           
1 66908U 98067XU  26059.52971302  .00120972  00000+0  11312-2 0  9990
2 66908  51.6255 112.2330 0004422  28.6161 331.5077 15.66365994 13748
SILVERSAT               
1 66909U 98067XV  26059.54568840  .00150783  00000+0  12814-2 0  9993
2 66909  51.6259 111.5898 0005257  25.0248 335.1003 15.68604057 13756
